STARLINK-2314
1 47788U 21018B   26090.35138457 -.00068208  00000+0 -21942-2 0  9994
2 47788  53.1585 119.0074 0002589  35.0912 325.0260 15.31871028280384
